{"type": "FeatureCollection", "features": [ {"type": "Feature", "properties": {"norad_id": 34079, "name": "IRIDIUM 33 DEB", "group": "iridium-33-debris", "lat": 57.27218299473237, "lon": 7.61528017037041, "alt_km": 612.2732151418159, "timestamp": "2025-12-27T11:23:20.286229+00:00", "meta": {"OBJECT_NAME": "IRIDIUM 33 DEB", "OBJECT_ID": "1997-051CN", "EPOCH": "2025-12-27T01:42:51.323040", "MEAN_MOTION": 14.83927191, "ECCENTRICITY": 0.0003744, "INCLINATION": 86.3778, "RA_OF_ASC_NODE": 2.142, "ARG_OF_PERICENTER": 311.9974, "MEAN_ANOMALY": 113.4004, "EPHEMERIS_TYPE": 0, "CLASSIFICATION_TYPE": "U", "NORAD_CAT_ID": 34079, "ELEMENT_SET_NO": 999, "REV_AT_EPOCH": 89190, "BSTAR": 0.0022888, "MEAN_MOTION_DOT": 0.00019073, "MEAN_MOTION_DDOT": 0}, "tle": {"line1": "1 34079U 97051CN  25361.07142735  .00019073  00000+0  22888-2 0  9990", "line2": "2 34079  86.3778   2.1420 0003744 311.9974 113.4004 14.83927191891900"}}, "geometry": {"type": "Point", "coordinates": [7.61528017037041, 57.27218299473237]}}, {"type": "Feature", "properties": {"norad_id": 34088, "name": "IRIDIUM 33 DEB", "group": "iridium-33-debris", "lat": -32.23527146536403, "lon": -153.7658315968413, "alt_km": 596.8976898808169, "timestamp": "2025-12-27T11:23:20.286240+00:00", "meta": {"OBJECT_NAME": "IRIDIUM 33 DEB", "OBJECT_ID": "1997-051CX", "EPOCH": "2025-12-27T02:38:55.250880", "MEAN_MOTION": 14.92046916, "ECCENTRICITY": 0.0007215, "INCLINATION": 86.3846, "RA_OF_ASC_NODE": 24.1166, "ARG_OF_PERICENTER": 132.7861, "MEAN_ANOMALY": 284.4811, "EPHEMERIS_TYPE": 0, "CLASSIFICATION_TYPE": "U", "NORAD_CAT_ID": 34088, "ELEMENT_SET_NO": 999, "REV_AT_EPOCH": 88956, "BSTAR": 0.0029256, "MEAN_MOTION_DOT": 0.0002981, "MEAN_MOTION_DDOT": 0}, "tle": {"line1": "1 34088U 97051CX  25361.11036170  .00029810  00000+0  29256-2 0  9996", "line2": "2 34088  86.3846  24.1166 0007215 132.7861 284.4811 14.92046916889569"}}, "geometry": {"type": "Point", "coordinates": [-153.7658315968413, -32.23527146536403]}}, {"type": "Feature", "properties": {"norad_id": 34091, "name": "IRIDIUM 33 DEB", "group": "iridium-33-debris", "lat": -81.48091925264094, "lon": -94.62754633553935, "alt_km": 605.2217542991948, "timestamp": "2025-12-27T11:23:20.286250+00:00", "meta": {"OBJECT_NAME": "IRIDIUM 33 DEB", "OBJECT_ID": "1997-051DA", "EPOCH": "2025-12-27T03:43:50.479104", "MEAN_MOTION": 14.82901423, "ECCENTRICITY": 0.0034302, "INCLINATION": 86.3407, "RA_OF_ASC_NODE": 60.2263, "ARG_OF_PERICENTER": 241.6733, "MEAN_ANOMALY": 118.1028, "EPHEMERIS_TYPE": 0, "CLASSIFICATION_TYPE": "U", "NORAD_CAT_ID": 34091, "ELEMENT_SET_NO": 999, "REV_AT_EPOCH": 88080, "BSTAR": 0.0057593, "MEAN_MOTION_DOT": 0.00047447, "MEAN_MOTION_DDOT": 0}, "tle": {"line1": "1 34091U 97051DA  25361.15544536  .00047447  00000+0  57593-2 0  9995", "line2": "2 34091  86.3407  60.2263 0034302 241.6733 118.1028 14.82901423880803"}}, "geometry": {"type": "Point", "coordinates": [-94.62754633553935, -81.48091925264094]}}, {"type": "Feature", "properties": {"norad_id": 34097, "name": "IRIDIUM 33 DEB", "group": "iridium-33-debris", "lat": 26.576406320951328, "lon": 172.9981015499874, "alt_km": 829.2005349020037, "timestamp": "2025-12-27T11:23:20.286261+00:00", "meta": {"OBJECT_NAME": "IRIDIUM 33 DEB", "OBJECT_ID": "1997-051DG", "EPOCH": "2025-12-26T22:57:25.330752", "MEAN_MOTION": 14.34897502, "ECCENTRICITY": 0.0081165, "INCLINATION": 86.2009, "RA_OF_ASC_NODE": 355.1315, "ARG_OF_PERICENTER": 315.5596, "MEAN_ANOMALY": 43.9106, "EPHEMERIS_TYPE": 0, "CLASSIFICATION_TYPE": "U", "NORAD_CAT_ID": 34097, "ELEMENT_SET_NO": 999, "REV_AT_EPOCH": 87323, "BSTAR": 0.0019362, "MEAN_MOTION_DOT": 5.728e-05, "MEAN_MOTION_DDOT": 0}, "tle": {"line1": "1 34097U 97051DG  25360.95654318  .00005728  00000+0  19362-2 0  9996", "line2": "2 34097  86.2009 355.1315 0081165 315.5596  43.9106 14.34897502873237"}}, "geometry": {"type": "Point", "coordinates": [172.9981015499874, 26.576406320951328]}}, {"type": "Feature", "properties": {"norad_id": 34145, "name": "IRIDIUM 33 DEB", "group": "iridium-33-debris", "lat": 78.45259501252984, "lon": 127.04649390270764, "alt_km": 719.9213333791367, "timestamp": "2025-12-27T11:23:20.286271+00:00", "meta": {"OBJECT_NAME": "IRIDIUM 33 DEB", "OBJECT_ID": "1997-051DY", "EPOCH": "2025-12-27T02:36:09.705888", "MEAN_MOTION": 14.42400271, "ECCENTRICITY": 0.0055377, "INCLINATION": 86.2127, "RA_OF_ASC_NODE": 326.1271, "ARG_OF_PERICENTER": 48.2173, "MEAN_ANOMALY": 312.3739, "EPHEMERIS_TYPE": 0, "CLASSIFICATION_TYPE": "U", "NORAD_CAT_ID": 34145, "ELEMENT_SET_NO": 999, "REV_AT_EPOCH": 87845, "BSTAR": 0.0016358, "MEAN_MOTION_DOT": 5.529e-05, "MEAN_MOTION_DDOT": 0}, "tle": {"line1": "1 34145U 97051DY  25361.10844567  .00005529  00000+0  16358-2 0  9996", "line2": "2 34145  86.2127 326.1271 0055377  48.2173 312.3739 14.42400271878454"}}, "geometry": {"type": "Point", "coordinates": [127.04649390270764, 78.45259501252984]}}, {"type": "Feature", "properties": {"norad_id": 34146, "name": "IRIDIUM 33 DEB", "group": "iridium-33-debris", "lat": 83.3748454232099, "lon": 129.27188825366292, "alt_km": 716.2105700775355, "timestamp": "2025-12-27T11:23:20.286282+00:00", "meta": {"OBJECT_NAME": "IRIDIUM 33 DEB", "OBJECT_ID": "1997-051DZ", "EPOCH": "2025-12-26T05:10:53.931072", "MEAN_MOTION": 14.49135058, "ECCENTRICITY": 0.0027049, "INCLINATION": 86.2845, "RA_OF_ASC_NODE": 343.8464, "ARG_OF_PERICENTER": 175.3009, "MEAN_ANOMALY": 198.4852, "EPHEMERIS_TYPE": 0, "CLASSIFICATION_TYPE": "U", "NORAD_CAT_ID": 34146, "ELEMENT_SET_NO": 999, "REV_AT_EPOCH": 88302, "BSTAR": 0.00092782, "MEAN_MOTION_DOT": 3.563e-05, "MEAN_MOTION_DDOT": 0}, "tle": {"line1": "1 34146U 97051DZ  25360.21590198  .00003563  00000+0  92782-3 0  9998", "line2": "2 34146  86.2845 343.8464 0027049 175.3009 198.4852 14.49135058883020"}}, "geometry": {"type": "Point", "coordinates": [129.27188825366292, 83.3748454232099]}}, {"type": "Feature", "properties": {"norad_id": 34159, "name": "IRIDIUM 33 DEB", "group": "iridium-33-debris", "lat": -29.767211989179415, "lon": 39.864050949041484, "alt_km": 770.7979186880784, "timestamp": "2025-12-27T11:23:20.286292+00:00", "meta": {"OBJECT_NAME": "IRIDIUM 33 DEB", "OBJECT_ID": "1997-051EN", "EPOCH": "2025-12-27T03:10:49.605312", "MEAN_MOTION": 14.38529458, "ECCENTRICITY": 0.0026307, "INCLINATION": 86.3489, "RA_OF_ASC_NODE": 42.1028, "ARG_OF_PERICENTER": 236.8927, "MEAN_ANOMALY": 122.9746, "EPHEMERIS_TYPE": 0, "CLASSIFICATION_TYPE": "U", "NORAD_CAT_ID": 34159, "ELEMENT_SET_NO": 999, "REV_AT_EPOCH": 88166, "BSTAR": 0.00044785, "MEAN_MOTION_DOT": 1.393e-05, "MEAN_MOTION_DDOT": 0}, "tle": {"line1": "1 34159U 97051EN  25361.13251858  .00001393  00000+0  44785-3 0  9990", "line2": "2 34159  86.3489  42.1028 0026307 236.8927 122.9746 14.38529458881663"}}, "geometry": {"type": "Point", "coordinates": [39.864050949041484, -29.767211989179415]}}, {"type": "Feature", "properties": {"norad_id": 34350, "name": "IRIDIUM 33 DEB", "group": "iridium-33-debris", "lat": 3.4250775457989246, "lon": -3.3668825403090485, "alt_km": 742.1412990436147, "timestamp": "2025-12-27T11:23:20.286303+00:00", "meta": {"OBJECT_NAME": "IRIDIUM 33 DEB", "OBJECT_ID": "1997-051ES", "EPOCH": "2025-12-26T11:11:35.511072", "MEAN_MOTION": 14.45418943, "ECCENTRICITY": 0.0023531, "INCLINATION": 86.3274, "RA_OF_ASC_NODE": 356.8502, "ARG_OF_PERICENTER": 93.2383, "MEAN_ANOMALY": 67.9711, "EPHEMERIS_TYPE": 0, "CLASSIFICATION_TYPE": "U", "NORAD_CAT_ID": 34350, "ELEMENT_SET_NO": 999, "REV_AT_EPOCH": 88491, "BSTAR": 0.00036255, "MEAN_MOTION_DOT": 1.3e-05, "MEAN_MOTION_DDOT": 0}, "tle": {"line1": "1 34350U 97051ES  25360.46638323  .00001300  00000+0  36255-3 0  9995", "line2": "2 34350  86.3274 356.8502 0023531  93.2383  67.9711 14.45418943884912"}}, "geometry": {"type": "Point", "coordinates": [-3.3668825403090485, 3.4250775457989246]}}, {"type": "Feature", "properties": {"norad_id": 34366, "name": "IRIDIUM 33 DEB", "group": "iridium-33-debris", "lat": 72.6091998510664, "lon": 54.60273530674677, "alt_km": 689.918303964555, "timestamp": "2025-12-27T11:23:20.286314+00:00", "meta": {"OBJECT_NAME": "IRIDIUM 33 DEB", "OBJECT_ID": "1997-051FJ", "EPOCH": "2025-12-27T04:46:07.017312", "MEAN_MOTION": 14.54168498, "ECCENTRICITY": 0.002303, "INCLINATION": 86.3682, "RA_OF_ASC_NODE": 43.0228, "ARG_OF_PERICENTER": 94.9118, "MEAN_ANOMALY": 335.0579, "EPHEMERIS_TYPE": 0, "CLASSIFICATION_TYPE": "U", "NORAD_CAT_ID": 34366, "ELEMENT_SET_NO": 999, "REV_AT_EPOCH": 88392, "BSTAR": 0.0010581, "MEAN_MOTION_DOT": 4.511e-05, "MEAN_MOTION_DDOT": 0}, "tle": {"line1": "1 34366U 97051FJ  25361.19869233  .00004511  00000+0  10581-2 0  9999", "line2": "2 34366  86.3682  43.0228 0023030  94.9118 335.0579 14.54168498883928"}}, "geometry": {"type": "Point", "coordinates": [54.60273530674677, 72.6091998510664]}}, {"type": "Feature", "properties": {"norad_id": 34375, "name": "IRIDIUM 33 DEB", "group": "iridium-33-debris", "lat": -56.04818263353113, "lon": 2.0789537498200854, "alt_km": 907.105404345275, "timestamp": "2025-12-27T11:23:20.286324+00:00", "meta": {"OBJECT_NAME": "IRIDIUM 33 DEB", "OBJECT_ID": "1997-051FT", "EPOCH": "2025-12-26T23:01:44.485824", "MEAN_MOTION": 14.1801844, "ECCENTRICITY": 0.0103676, "INCLINATION": 86.4324, "RA_OF_ASC_NODE": 176.9699, "ARG_OF_PERICENTER": 82.2682, "MEAN_ANOMALY": 46.0207, "EPHEMERIS_TYPE": 0, "CLASSIFICATION_TYPE": "U", "NORAD_CAT_ID": 34375, "ELEMENT_SET_NO": 999, "REV_AT_EPOCH": 86913, "BSTAR": 0.00046621, "MEAN_MOTION_DOT": 1.026e-05, "MEAN_MOTION_DDOT": 0}, "tle": {"line1": "1 34375U 97051FT  25360.95954266  .00001026  00000+0  46621-3 0  9996", "line2": "2 34375  86.4324 176.9699 0103676  82.2682  46.0207 14.18018440869136"}}, "geometry": {"type": "Point", "coordinates": [2.0789537498200854, -56.04818263353113]}}]}